XRISM                   
1 57800U 23137A   23365.14937459  .00004346  00000+0  34275-3 0  9997
2 57800  31.0054   6.7697 0009852 332.6355  27.3760 14.99090510 17282
